# From  26, 114
D/1766 G1 (Helfenzrieder),e,8.717,93.542,175.689,2.72373,0.219260,0.8521343,275.369,10/09.0/2023,2000,g  9.0,4.0
# From  89, 256
D/1884 O1 (Barnard),e,9.3078,332.8943,339.8284,3.083990,0.1819846,0.57128598,210.5471,10/09.0/2023,2000,g  9.0,4.0
# From  89, 256
D/1886 K1 (Brooks),e,10.9262,39.1625,208.4446,3.551661,0.1472505,0.46834663,268.9521,10/09.0/2023,2000,g  9.0,4.0
# From CCO 8
D/1894 F1 (Denning),e,1.4227,297.3392,198.4096,3.825684,0.1317166,0.69383521,86.8103,10/09.0/2023,2000,g  9.0,4.0
# From  13, 428
D/1895 Q1 (Swift),e,13.5239,135.7918,199.2567,3.723075,0.1371992,0.62686990,264.3104,10/09.0/2023,2000,g  9.0,4.0
# From  114, 147
D/1918 W1 (Schorr),e,6.8224,75.9293,326.4420,4.154696,0.1163845,0.31782630,320.6540,10/09.0/2023,2000,g  9.0,4.0
# From MPC 4601
D/1952 B1 (Harrington-Wilson),e,11.1700,116.4096,5.0014,3.079351,0.1823960,0.62505445,80.6069,10/09.0/2023,2000,g  9.0,4.0
# From MPC 11152
D/1977 C1 (Skiff-Kosai),e,3.1988,80.2891,25.2171,3.827132,0.1316418,0.26876989,105.7532,10/09.0/2023,2000,g  9.0,4.0
# From NK 779
D/1978 R1 (Haneda-Campos),e,4.9452,66.4918,307.1732,3.456103,0.1533996,0.62938378,26.7461,10/09.0/2023,2000,g  9.0,4.0
# From MPC 23764
D/1993 F2-D (Shoemaker-Levy),e,40.9121,160.7200,223.7468,4.218925,0.1137369,0.33199183,355.9849,10/09.0/2023,2000,g  9.0,4.0
# From MPEC 2022-S20
C/1995 O1 (Hale-Bopp),e,89.3905,282.4607,130.1914,177.0763,0.0004183,0.99498884,0.0000,03/30.8064/1997,2000,g -2.0,4.0
# From NK 1615
P/1996 R2 (Lagerkvist),e,2.6001,40.0588,333.4075,3.774034,0.1344297,0.31461114,228.2484,10/09.0/2023,2000,g 11.5,4.0
# From MPC 75703
P/1998 VS24 (LINEAR),e,5.0282,159.0773,244.6752,4.523463,0.1024466,0.24358301,213.6466,10/09.0/2023,2000,g 13.0,2.0
# From NK 731
P/1999 RO28 (LONEOS),e,7.5675,137.8857,231.3046,3.426124,0.1554174,0.67249043,243.1174,10/09.0/2023,2000,g 20.0,2.0
# From MPC 75704
P/1999 XN120 (Catalina),e,5.0299,285.2639,161.6772,4.179132,0.1153652,0.21069958,267.0721,10/09.0/2023,2000,g 13.5,2.0
# From NK 744
P/2000 R2 (LINEAR),e,11.6841,160.2957,176.5920,3.468147,0.1526011,0.53107757,240.2013,10/09.0/2023,2000,g 18.0,4.0
# From MPC 43019
P/2001 H5 (NEAT),e,8.3679,328.6342,224.6973,6.095690,0.0654892,0.59826091,191.3185,10/09.0/2023,2000,g 12.0,4.0
# From MPC 75704
P/2001 Q6 (NEAT),e,56.9123,22.1935,42.9266,7.969146,0.0438113,0.82362177,353.7649,10/09.0/2023,2000,g 13.5,4.0
# From MPC 47727
P/2002 EJ57 (LINEAR),e,4.9799,330.2611,167.2750,6.459336,0.0600375,0.59287048,116.4299,10/09.0/2023,2000,g 12.5,4.0
# From MPC109588
P/2002 T6 (NEAT-LINEAR),e,10.8569,205.9909,219.3217,7.785878,0.0453673,0.56503188,347.1579,10/09.0/2023,2000,g 10.5,4.0
# From MPC 75007
C/2002 VQ94 (LINEAR),e,70.7139,35.1661,99.8810,184.7034,0.0003926,0.96327043,2.5352,10/09.0/2023,2000,g  9.5,2.0
# From MPC 50354
P/2003 F2 (NEAT),e,11.6260,358.9827,192.2594,6.500774,0.0594643,0.54136017,84.8491,10/09.0/2023,2000,g 16.5,2.0
# From MPC 50139
P/2003 QX29 (NEAT),e,11.3967,264.5392,37.6707,8.008439,0.0434893,0.47203399,330.9470,10/09.0/2023,2000,g  8.5,4.0
# From MPC105235
P/2003 T12 (SOHO),e,11.0252,174.5867,219.7678,2.584741,0.2371802,0.77027594,296.2578,10/09.0/2023,2000,g 17.0,4.0
# From MPC 54558
P/2004 DO29 (Spacewatch-LINEAR),e,14.5291,147.3242,40.4821,7.304315,0.0499269,0.44177987,348.1092,10/09.0/2023,2000,g 13.5,2.0
# From MPEC 2022-YN2
P/2004 FY140 (LINEAR),e,2.1619,327.2732,254.1366,4.970025,0.0889541,0.19178266,250.3564,10/09.0/2023,2000,g 12.5,2.0
# From MPC 53304
P/2004 R3 (LINEAR-NEAT),e,12.7891,305.1364,37.6205,4.756007,0.0950255,0.25472925,71.2927,10/09.0/2023,2000,g 14.5,4.0
# From MPC 75705
P/2004 V5 (LINEAR-Hill),e,19.3476,47.7396,87.4711,8.004581,0.0435207,0.44612395,299.0048,10/09.0/2023,2000,g  8.0,4.0
# From MPC 75705
P/2004 V5-B (LINEAR-Hill),e,19.3477,47.7400,87.4740,8.005006,0.0435173,0.44614952,298.9679,10/09.0/2023,2000,g  8.0,4.0
# From MPC 54164
P/2005 E1 (Tubbiolo),e,4.2625,335.5286,193.8735,7.057815,0.0525652,0.37618669,0.5873,10/09.0/2023,2000,g 10.0,4.0
# From MPC 79019
P/2005 J1 (McNaught),e,31.7383,268.7981,338.9232,3.573123,0.1459258,0.56891548,266.3268,10/09.0/2023,2000,g 16.5,4.0
# From MPC 74246
P/2005 L1 (McNaught),e,7.6633,137.7277,151.3621,4.013136,0.1225966,0.21878823,85.3164,10/09.0/2023,2000,g  9.5,4.0
# From MPC 75706
P/2005 S2 (Skiff),e,3.1366,161.3655,229.5740,7.996953,0.0435830,0.19889916,275.8887,10/09.0/2023,2000,g  7.5,4.0
# From MPC 75706
P/2005 SB216 (LONEOS),e,24.1102,1.1277,83.2184,7.150935,0.0515418,0.46529595,317.2816,10/09.0/2023,2000,g 12.0,2.0
# From MPC 73461
P/2005 T3 (Read),e,6.2262,27.6733,6.7337,7.587950,0.0471539,0.17556750,310.9122,10/09.0/2023,2000,g  9.0,4.0
# From MPC 73461
P/2005 T4 (SWAN),e,60.2904,25.9510,41.8680,9.356335,0.0344386,0.92995030,226.1909,10/09.0/2023,2000,g 15.0,4.0
# From MPC 75706
P/2005 T5 (Broughton),e,21.3834,57.0684,304.7046,7.272703,0.0502528,0.55250504,329.1170,10/09.0/2023,2000,g 11.0,4.0
# From MPC 75707
P/2006 HR30 (Siding Spring),e,31.9013,309.8494,117.3868,7.805200,0.0451989,0.84351093,277.4294,10/09.0/2023,2000,g 11.0,4.0
# From MPC 75707
P/2007 C2 (Catalina),e,8.6124,275.2685,180.1522,7.006094,0.0531484,0.47280501,312.4250,10/09.0/2023,2000,g 10.0,4.0
# From MPC 84315
C/2007 D1 (LINEAR),e,41.5033,171.1917,339.7055,1143,0.0000255,0.99233161,0.0000,06/08.5308/2007,2000,g  3.5,4.0
# From MPC 82314
P/2007 K2 (Gibbs),e,7.6255,188.5923,347.3156,7.289290,0.0500814,0.68391955,301.1000,10/09.0/2023,2000,g 14.0,4.0
# From MPC 60925
P/2007 Q2 (Gilmore),e,10.2011,172.1884,162.8696,5.660170,0.0731914,0.66965099,76.5817,10/09.0/2023,2000,g 16.0,4.0
# From MPC 73462
P/2007 S1 (Zhao),e,5.9650,141.3313,245.2013,3.817031,0.1321647,0.33852691,48.5420,10/09.0/2023,2000,g 13.0,4.0
# From MPC 61994
P/2007 T2 (Kowalski),e,9.7508,3.3897,359.6704,3.044253,0.1855594,0.78565768,352.6487,10/09.0/2023,2000,g 18.5,4.0
# From MPC 64114
P/2008 O3 (Boattini),e,32.3290,47.6082,341.1656,8.211532,0.0418859,0.69665339,234.5767,10/09.0/2023,2000,g 13.0,4.0
# From MPC 75710
P/2008 Y3 (McNaught),e,38.7779,262.8271,238.0501,8.045559,0.0431887,0.44664777,233.7433,10/09.0/2023,2000,g  8.5,4.0
# From MPC 75710
P/2009 B1 (Boattini),e,22.2485,297.1047,128.9165,6.734591,0.0563946,0.63598874,303.8696,10/09.0/2023,2000,g 13.0,4.0
# From MPC 66466
C/2009 G1 (STEREO),e,8.5309,120.6797,175.5304,465.3875,0.0000982,0.99752279,0.0000,04/15.3732/2009,2000,g  9.0,4.0
# From MPC 75710
P/2009 O3 (Hill),e,16.2788,183.7087,154.4824,7.767070,0.0455322,0.68730226,238.7450,10/09.0/2023,2000,g 12.5,4.0
# From MPC 68902
P/2009 Q5 (McNaught),e,40.9865,160.2868,209.1376,7.426777,0.0486971,0.60985823,249.9183,10/09.0/2023,2000,g 10.0,4.0
# From MPC112389
P/2009 T2 (La Sagra),e,27.6168,216.3609,215.8993,7.714638,0.0459971,0.76709039,231.1471,10/09.0/2023,2000,g 14.0,4.0
# From MPC105235
P/2009 WX51 (Catalina),e,9.5921,31.5590,118.2522,3.082730,0.1820962,0.73930811,192.5773,10/09.0/2023,2000,g 19.0,2.0
# From MPC 74247
P/2009 Y2 (Kowalski),e,29.9687,262.0781,172.1436,6.546949,0.0588363,0.63725413,292.3546,10/09.0/2023,2000,g 13.0,4.0
# From MPC 75711
P/2010 A3 (Hill),e,14.8185,63.6514,42.2373,6.092340,0.0655432,0.73399253,325.9468,10/09.0/2023,2000,g 14.0,4.0
# From MPC 75008
P/2010 C1 (Scotti),e,9.1196,141.6644,3.2327,7.113300,0.0519514,0.26190902,265.5845,10/09.0/2023,2000,g  9.5,4.0
# From MPC 75008
P/2010 D2 (WISE),e,57.1122,319.8735,119.9312,6.721924,0.0565540,0.45169568,282.5690,10/09.0/2023,2000,g 16.0,4.0
# From MPC 75009
P/2010 E2 (Jarnac),e,15.3916,177.7938,8.2785,8.639636,0.0388115,0.71963239,192.1989,10/09.0/2023,2000,g 14.0,4.0
# From MPC 72851
P/2010 H2 (Vales),e,14.2795,64.1873,128.0404,3.831716,0.1314057,0.19708879,291.9705,10/09.0/2023,2000,g  6.0,4.0
# From MPC 70361
P/2010 H3 (SOHO),e,23.1313,77.1614,26.0796,3.036044,0.1863125,0.98546967,0.0000,05/25.1088/2026,2000,g 20.0,2.0
# From MPC 73463
P/2010 H4 (Scotti),e,2.3179,44.6157,179.2141,6.606804,0.0580386,0.26602118,283.4437,10/09.0/2023,2000,g 10.5,4.0
# From MPC 74637
P/2010 H5 (Scotti),e,14.0574,24.5908,174.6335,7.175050,0.0512822,0.15285569,254.6405,10/09.0/2023,2000,g 13.0,2.0
# From MPC 98558
P/2010 J3 (McMillan),e,13.2466,106.5050,157.5257,8.984343,0.0365995,0.72471559,175.6212,10/09.0/2023,2000,g 11.0,4.0
# From MPC 84315
P/2010 JC81 (WISE),e,38.8228,30.8803,12.4443,8.103787,0.0427240,0.77827970,194.1922,10/09.0/2023,2000,g  9.0,4.0
# From MPC 74248
P/2010 T2 (PANSTARRS),e,7.8874,57.9743,352.1842,5.625876,0.0738616,0.32850531,348.7917,10/09.0/2023,2000,g 11.5,4.0
# From MPEC 2023-O88
P/2010 TO20 (LINEAR-Grauer),e,2.4788,43.2737,267.8110,5.832235,0.0699764,0.05552886,21.8059,10/09.0/2023,2000,g  9.0,4.0
# From MPC 82316
P/2010 U1 (Boattini),e,8.2244,280.8048,86.3380,6.495588,0.0595355,0.24913631,296.6120,10/09.0/2023,2000,g  9.5,4.0
# From MPEC 2023-J95
C/2010 U3 (Boattini),e,55.5670,42.9873,88.0379,3643,0.0000045,0.99768340,0.0000,02/25.8417/2019,2000,g  1.0,4.0
# From MPC 79021
P/2010 UH55 (Spacewatch),e,8.0374,232.9029,225.1538,6.653607,0.0574273,0.56424363,262.4501,10/09.0/2023,2000,g 11.0,4.0
# From MPC 75009
P/2010 WK (LINEAR),e,11.4022,11.3445,40.9947,5.762279,0.0712546,0.69069388,339.5988,10/09.0/2023,2000,g 14.5,2.0
# From MPC 84021
P/2011 C2 (Gibbs),e,10.8876,11.9535,160.4104,7.413020,0.0488328,0.26959143,211.1156,10/09.0/2023,2000,g  9.0,4.0
# From MPC 79866
P/2011 FR143 (Lemmon),e,15.9735,190.8747,349.8649,6.868385,0.0547548,0.45130867,253.3766,10/09.0/2023,2000,g 14.0,2.0
# From MPC 82317
P/2011 JB15 (Spacewatch-Boattini),e,19.1357,153.5554,110.9889,7.372367,0.0492372,0.31503952,211.2762,10/09.0/2023,2000,g  9.0,4.0
# From MPC 87913
P/2011 N1 (ASH),e,35.7768,77.6271,330.3963,6.240751,0.0632192,0.54549880,262.4332,10/09.0/2023,2000,g 11.5,4.0
# From MPC 75714
P/2011 NO1 (Elenin),e,15.2455,295.8152,263.7186,5.535792,0.0756719,0.77482377,352.5119,10/09.0/2023,2000,g 15.0,4.0
# From MPEC 2022-ED3
P/2011 P1 (McNaught),e,5.6581,4.2924,349.1675,7.458024,0.0483914,0.32743955,232.8578,10/09.0/2023,2000,g  9.0,4.0
# From MPEC 2022-HC2
